#aV2021  6 21  0  0  0.00000000     288 DD+AD WGS84 FIT  NGA
## 2163  86400.00000000   300.00000000 59386 0.0000000000000
+   31     1  2  3  4  5  6  7  8  9 10 12 13 14 15 16 17 18
+         19 20 21 22 23 24 25 26 27 28 29 30 31 32  0  0  0
+          0  0  0  0  0  0  0  0  0  0  0  0  0  0  0  0  0
+          0  0  0  0  0  0  0  0  0  0  0  0  0  0  0  0  0
+          0  0  0  0  0  0  0  0  0  0  0  0  0  0  0  0  0
++         2  2  2  2  2  2  2  2  2  2  2  2  2  2  2  2  2
++         2  2  2  2  2  2  2  2  2  2  2  2  2  2  0  0  0
++         0  0  0  0  0  0  0  0  0  0  0  0  0  0  0  0  0
++         0  0  0  0  0  0  0  0  0  0  0  0  0  0  0  0  0
++         0  0  0  0  0  0  0  0  0  0  0  0  0  0  0  0  0
%c cc cc ccc ccc cccc cccc cccc cccc ccccc ccccc ccccc ccccc
%c cc cc ccc ccc cccc cccc cccc cccc ccccc ccccc ccccc ccccc
%f  0.0000000  0.000000000  0.00000000000  0.000000000000000
%f  0.0000000  0.000000000  0.00000000000  0.000000000000000
%i    0    0    0    0      0      0      0      0         0
%i    0    0    0    0      0      0      0      0         0
/*      NGA, ST. LOUIS,MO.                                  
/*   EPHEMERIS COMPUTED FROM 2 DAYS OF DATA                 
/*   EPOCHA v6 SMOOTHER                                     
/*   G2139 IERS2010 SATIGS SATAPC                           
*  2021  6 21  4 20  0.00000000
P  1 -16040.305644  -3031.253241  20763.137226    652.028611                    
V  1  -9394.873239 -25134.683430 -10456.609751     -0.116968                    
P  2  13803.147050  22278.380056  -3451.884916   -613.940755                    
V  2   -211.935561   5909.916786  31449.923111     -0.028643                    
P  3 -19565.584774   6888.141022  16433.036358   -197.902075                    
V  3  11486.013048 -17738.571343  21107.306874     -0.107959                    
P  4 -25964.173749   -338.082045  -5728.788523   -200.461578                    
V  4  -6720.592397  -3875.469455  30581.978842     -0.010689                    
P  5  14125.344824   6535.462216 -21695.995084    -45.571234                    
V  5 -15627.265405  22226.602889  -3325.791852     -0.011368                    
P  6   5892.895788  25158.573589   6072.796145     29.573350                    
V  6  -4761.118392  -6300.582268  31061.810114      0.048170                    
P  7 -10581.286258  12628.925646 -20370.511765    183.513295                    
V  7 -11125.449039 -24445.729472  -9704.002128      0.095629                    
P  8 -25587.895899  -6193.390715  -4606.502352    -25.884320                    
V  8   6009.734596  -1624.442544 -30981.900844     -0.014701                    
P  9 -20176.152917   8458.997323 -15137.101238   -352.112859                    
V  9 -18743.010873  -4383.110863  22597.739363     -0.018151                    
P 10   9958.449292 -22875.721699   8818.970459   -146.518147                    
V 10   8757.966317  -7274.812144 -29407.321518     -0.075969                    
P 12  19582.607894  -4522.627324  17041.495835    -57.868653                    
V 12 -13521.968395  17625.120236  20054.504488     -0.052393                    
P 13  20424.056809  13308.659195 -10845.405829    147.575143                    
V 13 -13597.656634  -1504.644506 -27657.456816      0.048759                    
P 14 -11024.971157  22523.890166   8689.076420     64.879232                    
V 14  -9221.054497   6687.826973 -29044.988331     -0.078119                    
P 15  26109.351688   3928.537170  -4650.233461   -140.939291                    
V 15  -5484.615413   3302.130095 -30067.357317      0.026286                    
P 16  -9169.818798 -12109.800716 -22000.687830   -344.621382                    
V 16  18917.969662 -19752.713658   3467.355596     -0.060707                    
P 17  -6153.056879  13907.186422  22202.403386    461.759910                    
V 17 -26548.725683  -5478.375004  -3999.990630      0.059498                    
P 18   8370.440936 -15810.535130 -19620.229783    345.683789                    
V 18  10034.947930  22804.818754 -14174.653753     -0.019839                    
P 19   4032.307906  15452.468643  20962.335602     16.125487                    
V 19 -26566.318851  -5864.265340   9181.429055      0.049847                    
P 20  12423.496062   9795.117805 -21347.224802    520.960706                    
V 20 -13462.942501  23597.418161   2704.346091     -0.003872                    
P 21 -18520.973665 -10012.062740  17188.554938    126.384090                    
V 21  -7870.494718 -18767.286037 -19760.647240      0.024475                    
P 22 -16697.588419  -2067.759717  20700.605656   -583.184036                    
V 22  12888.750785 -22604.849811   8412.224391      0.096162                    
P 23  16926.196032 -20288.551207  -2420.126810     94.430886                    
V 23    397.357946   4071.189800 -31681.947147     -0.044258                    
P 24  18269.752642   7407.359072  17728.171069    141.875581                    
V 24   8520.907032  21386.582783 -17077.539194      0.172541                    
P 25  19441.150211 -15663.624563   8393.154972    159.657491                    
V 25  -4491.999070  10547.299432  29439.083673      0.068471                    
P 26  -1516.537307 -19901.734497 -17446.584311    101.016281                    
V 26  14522.982128 -16932.962676  18383.050507      0.047639                    
P 27 -19151.549303 -12276.658684 -14189.264020   -150.542264                    
V 27  17582.413155    851.807782 -24425.985925     -0.061546                    
P 28  -6509.534214  21619.414109  14687.029527    551.119196                    
V 28 -13151.913941  11808.583849 -23937.332499     -0.063938                    
P 29  21344.516855  -5617.906345 -14864.762476   -367.572308                    
V 29  18009.503551   5322.461413  23876.898488     -0.062791                    
P 30  -1693.574784  22823.661424 -13210.344381   -441.527856                    
V 30  -8867.623024 -14847.578563 -24630.165379     -0.046302                    
P 31  -7140.261848 -25103.028636   3202.312770   -124.251782                    
V 31   4640.902060   2757.736042  31600.408804     -0.021554                    
P 32   2419.592687 -15165.457254  21782.715339     17.680998                    
V 32  27164.602115   3604.852003   -678.997140     -0.015098                    
EOF
